CCSDS_OMM_VERS = 2.0
CREATION_DATE  = 
ORIGINATOR     = 

OBJECT_NAME    = BOTAN
OBJECT_ID      = 1998-067XP
CENTER_NAME    = EARTH
REF_FRAME      = TEME
TIME_SYSTEM    = UTC
MEAN_ELEMENT_THEORY = SGP/SGP4

EPOCH          = 2025-11-03T19:05:41.632800
MEAN_MOTION    = 15.54427286
ECCENTRICITY   = .0004805
INCLINATION    = 51.6325
RA_OF_ASC_NODE = 334.7378
ARG_OF_PERICENTER = 16.4520
MEAN_ANOMALY   = 343.6625

EPHEMERIS_TYPE = 0
CLASSIFICATION_TYPE = U
NORAD_CAT_ID   = 65942
ELEMENT_SET_NO = 999
REV_AT_EPOCH   = 379
BSTAR          = .11037768E-2
MEAN_MOTION_DOT = .74105E-3
MEAN_MOTION_DDOT = 0

CCSDS_OMM_VERS = 2.0
CREATION_DATE  = 
ORIGINATOR     = 

OBJECT_NAME    = E-KAGAKU-1
OBJECT_ID      = 1998-067XQ
CENTER_NAME    = EARTH
REF_FRAME      = TEME
TIME_SYSTEM    = UTC
MEAN_ELEMENT_THEORY = SGP/SGP4

EPOCH          = 2025-11-03T08:27:04.684320
MEAN_MOTION    = 15.53447140
ECCENTRICITY   = .00044757
INCLINATION    = 51.6338
RA_OF_ASC_NODE = 337.0259
ARG_OF_PERICENTER = 1.7618
MEAN_ANOMALY   = 358.3388

EPHEMERIS_TYPE = 0
CLASSIFICATION_TYPE = U
NORAD_CAT_ID   = 65943
ELEMENT_SET_NO = 999
REV_AT_EPOCH   = 372
BSTAR          = .76994813E-3
MEAN_MOTION_DOT = .49569E-3
MEAN_MOTION_DDOT = 0

CCSDS_OMM_VERS = 2.0
CREATION_DATE  = 
ORIGINATOR     = 

OBJECT_NAME    = 2025-226D
OBJECT_ID      = 2025-226D
CENTER_NAME    = EARTH
REF_FRAME      = TEME
TIME_SYSTEM    = UTC
MEAN_ELEMENT_THEORY = SGP/SGP4

EPOCH          = 2025-11-03T20:22:08.840352
MEAN_MOTION    = 15.41725104
ECCENTRICITY   = .00201225
INCLINATION    = 97.6585
RA_OF_ASC_NODE = 22.4810
ARG_OF_PERICENTER = 274.4606
MEAN_ANOMALY   = 85.4341

EPHEMERIS_TYPE = 0
CLASSIFICATION_TYPE = U
NORAD_CAT_ID   = 65944
ELEMENT_SET_NO = 999
REV_AT_EPOCH   = 360
BSTAR          = .30278941E-1
MEAN_MOTION_DOT = .1411813E-1
MEAN_MOTION_DDOT = 0

CCSDS_OMM_VERS = 2.0
CREATION_DATE  = 
ORIGINATOR     = 

OBJECT_NAME    = SHIYAN-31
OBJECT_ID      = 2025-227A
CENTER_NAME    = EARTH
REF_FRAME      = TEME
TIME_SYSTEM    = UTC
MEAN_ELEMENT_THEORY = SGP/SGP4

EPOCH          = 2025-11-03T22:02:04.659072
MEAN_MOTION    = 15.20388391
ECCENTRICITY   = .00114614
INCLINATION    = 80.0037
RA_OF_ASC_NODE = 73.4791
ARG_OF_PERICENTER = 197.4784
MEAN_ANOMALY   = 162.6050

EPHEMERIS_TYPE = 0
CLASSIFICATION_TYPE = U
NORAD_CAT_ID   = 65945
ELEMENT_SET_NO = 999
REV_AT_EPOCH   = 327
BSTAR          = .4816408E-3
MEAN_MOTION_DOT = .1053E-3
MEAN_MOTION_DDOT = 0

CCSDS_OMM_VERS = 2.0
CREATION_DATE  = 
ORIGINATOR     = 

OBJECT_NAME    = CZ-2D R/B
OBJECT_ID      = 2025-227B
CENTER_NAME    = EARTH
REF_FRAME      = TEME
TIME_SYSTEM    = UTC
MEAN_ELEMENT_THEORY = SGP/SGP4

EPOCH          = 2025-11-03T21:14:20.124096
MEAN_MOTION    = 15.27480180
ECCENTRICITY   = .00213447
INCLINATION    = 80.1552
RA_OF_ASC_NODE = 73.8279
ARG_OF_PERICENTER = 324.3221
MEAN_ANOMALY   = 35.6582

EPHEMERIS_TYPE = 0
CLASSIFICATION_TYPE = U
NORAD_CAT_ID   = 65946
ELEMENT_SET_NO = 999
REV_AT_EPOCH   = 328
BSTAR          = .4205251E-3
MEAN_MOTION_DOT = .11405E-3
MEAN_MOTION_DDOT = 0

CCSDS_OMM_VERS = 2.0
CREATION_DATE  = 
ORIGINATOR     = 

OBJECT_NAME    = KUIPER-00101
OBJECT_ID      = 2025-228A
CENTER_NAME    = EARTH
REF_FRAME      = TEME
TIME_SYSTEM    = UTC
MEAN_ELEMENT_THEORY = SGP/SGP4

EPOCH          = 2025-11-03T23:35:28.407552
MEAN_MOTION    = 15.34870686
ECCENTRICITY   = .00057289
INCLINATION    = 51.8807
RA_OF_ASC_NODE = 207.2874
ARG_OF_PERICENTER = 209.9953
MEAN_ANOMALY   = 150.0705

EPHEMERIS_TYPE = 0
CLASSIFICATION_TYPE = U
NORAD_CAT_ID   = 65947
ELEMENT_SET_NO = 999
REV_AT_EPOCH   = 446
BSTAR          = .91284921E-3
MEAN_MOTION_DOT = .311E-3
MEAN_MOTION_DDOT = 0

CCSDS_OMM_VERS = 2.0
CREATION_DATE  = 
ORIGINATOR     = 

OBJECT_NAME    = KUIPER-00113
OBJECT_ID      = 2025-228B
CENTER_NAME    = EARTH
REF_FRAME      = TEME
TIME_SYSTEM    = UTC
MEAN_ELEMENT_THEORY = SGP/SGP4

EPOCH          = 2025-11-03T21:56:42.492480
MEAN_MOTION    = 15.35116169
ECCENTRICITY   = .00061382
INCLINATION    = 51.8808
RA_OF_ASC_NODE = 207.5824
ARG_OF_PERICENTER = 205.7614
MEAN_ANOMALY   = 154.3067

EPHEMERIS_TYPE = 0
CLASSIFICATION_TYPE = U
NORAD_CAT_ID   = 65948
ELEMENT_SET_NO = 999
REV_AT_EPOCH   = 445
BSTAR          = .57146579E-3
MEAN_MOTION_DOT = .19451E-3
MEAN_MOTION_DDOT = 0

CCSDS_OMM_VERS = 2.0
CREATION_DATE  = 
ORIGINATOR     = 

OBJECT_NAME    = KUIPER-00117
OBJECT_ID      = 2025-228C
CENTER_NAME    = EARTH
REF_FRAME      = TEME
TIME_SYSTEM    = UTC
MEAN_ELEMENT_THEORY = SGP/SGP4

EPOCH          = 2025-11-03T21:57:32.654592
MEAN_MOTION    = 15.35070116
ECCENTRICITY   = .00059161
INCLINATION    = 51.8807
RA_OF_ASC_NODE = 207.5860
ARG_OF_PERICENTER = 206.1874
MEAN_ANOMALY   = 153.8813

EPHEMERIS_TYPE = 0
CLASSIFICATION_TYPE = U
NORAD_CAT_ID   = 65949
ELEMENT_SET_NO = 999
REV_AT_EPOCH   = 445
BSTAR          = .56087381E-3
MEAN_MOTION_DOT = .19053E-3
MEAN_MOTION_DDOT = 0

CCSDS_OMM_VERS = 2.0
CREATION_DATE  = 
ORIGINATOR     = 

OBJECT_NAME    = KUIPER-00121
OBJECT_ID      = 2025-228D
CENTER_NAME    = EARTH
REF_FRAME      = TEME
TIME_SYSTEM    = UTC
MEAN_ELEMENT_THEORY = SGP/SGP4

EPOCH          = 2025-11-03T23:43:04.011168
MEAN_MOTION    = 15.34493257
ECCENTRICITY   = .00054928
INCLINATION    = 51.8816
RA_OF_ASC_NODE = 207.3284
ARG_OF_PERICENTER = 225.1424
MEAN_ANOMALY   = 134.9116

EPHEMERIS_TYPE = 0
CLASSIFICATION_TYPE = U
NORAD_CAT_ID   = 65950
ELEMENT_SET_NO = 999
REV_AT_EPOCH   = 446
BSTAR          = .78962001E-3
MEAN_MOTION_DOT = .26509E-3
MEAN_MOTION_DDOT = 0

CCSDS_OMM_VERS = 2.0
CREATION_DATE  = 
ORIGINATOR     = 

OBJECT_NAME    = KUIPER-00122
OBJECT_ID      = 2025-228E
CENTER_NAME    = EARTH
REF_FRAME      = TEME
TIME_SYSTEM    = UTC
MEAN_ELEMENT_THEORY = SGP/SGP4

EPOCH          = 2025-11-03T22:00:03.000096
MEAN_MOTION    = 15.30724080
ECCENTRICITY   = .00068757
INCLINATION    = 51.8817
RA_OF_ASC_NODE = 207.7522
ARG_OF_PERICENTER = 235.3008
MEAN_ANOMALY   = 53.6781

EPHEMERIS_TYPE = 0
CLASSIFICATION_TYPE = U
NORAD_CAT_ID   = 65951
ELEMENT_SET_NO = 999
REV_AT_EPOCH   = 307
BSTAR          = -.20525134E-1
MEAN_MOTION_DOT = -.574254E-2
MEAN_MOTION_DDOT = 0

CCSDS_OMM_VERS = 2.0
CREATION_DATE  = 
ORIGINATOR     = 

OBJECT_NAME    = KUIPER-00123
OBJECT_ID      = 2025-228F
CENTER_NAME    = EARTH
REF_FRAME      = TEME
TIME_SYSTEM    = UTC
MEAN_ELEMENT_THEORY = SGP/SGP4

EPOCH          = 2025-11-03T22:00:03.000096
MEAN_MOTION    = 15.29673661
ECCENTRICITY   = .00050153
INCLINATION    = 51.8816
RA_OF_ASC_NODE = 207.7261
ARG_OF_PERICENTER = 230.0604
MEAN_ANOMALY   = 57.7305

EPHEMERIS_TYPE = 0
CLASSIFICATION_TYPE = U
NORAD_CAT_ID   = 65952
ELEMENT_SET_NO = 999
REV_AT_EPOCH   = 137
BSTAR          = -.3901204E-2
MEAN_MOTION_DOT = -.112495E-2
MEAN_MOTION_DDOT = 0

CCSDS_OMM_VERS = 2.0
CREATION_DATE  = 
ORIGINATOR     = 

OBJECT_NAME    = KUIPER-00124
OBJECT_ID      = 2025-228G
CENTER_NAME    = EARTH
REF_FRAME      = TEME
TIME_SYSTEM    = UTC
MEAN_ELEMENT_THEORY = SGP/SGP4

EPOCH          = 2025-11-03T22:12:39.027744
MEAN_MOTION    = 15.34302379
ECCENTRICITY   = .00055194
INCLINATION    = 51.8808
RA_OF_ASC_NODE = 207.6545
ARG_OF_PERICENTER = 232.7003
MEAN_ANOMALY   = 127.3480

EPHEMERIS_TYPE = 0
CLASSIFICATION_TYPE = U
NORAD_CAT_ID   = 65953
ELEMENT_SET_NO = 999
REV_AT_EPOCH   = 445
BSTAR          = .67457809E-3
MEAN_MOTION_DOT = .22441E-3
MEAN_MOTION_DDOT = 0

